{
  "type": "FeatureCollection",
  "features": [
    {
      "type": "Feature",
      "properties": {
        "norad_id": 41026,
        "name": "YAOGAN-28",
        "group": "resource",
        "lat": -76.90506553035144,
        "lon": 168.1642006053659,
        "alt_km": 508.19806890670134,
        "timestamp": "2025-12-23T07:45:09.053880+00:00",
        "meta_object_name": "YAOGAN-28",
        "meta_object_id": "2015-064A",
        "meta_epoch": "2025-12-22T22:38:52.192032",
        "meta_mean_motion": 15.24507502,
        "meta_eccentricity": 0.00126557,
        "meta_inclination": 97.2817,
        "meta_ra_of_asc_node": 134.4491,
        "meta_arg_of_pericenter": 93.7014,
        "meta_mean_anomaly": 266.5671,
        "meta_ephemeris_type": 0,
        "meta_classification_type": "U",
        "meta_norad_cat_id": 41026,
        "meta_element_set_no": 999,
        "meta_rev_at_epoch": 56380,
        "meta_bstar": 0.0003541606,
        "meta_mean_motion_dot": 8.661e-05,
        "meta_mean_motion_ddot": 0,
        "tle_line1": "1 41026U 15064A   25356.94365963  .00008661  00000+0  35416-3 0  9997",
        "tle_line2": "2 41026  97.2817 134.4491 0012655  93.7014 266.5671 15.24507502563804"
      },
      "geometry": {
        "type": "Point",
        "coordinates": [
          168.1642006053659,
          -76.90506553035144
        ]
      }
    },
    {
      "type": "Feature",
      "properties": {
        "norad_id": 41038,
        "name": "YAOGAN-29",
        "group": "resource",
        "lat": -56.568498442940914,
        "lon": -171.80448928969085,
        "alt_km": 627.09048569683,
        "timestamp": "2025-12-23T07:45:09.053890+00:00",
        "meta_object_name": "YAOGAN-29",
        "meta_object_id": "2015-069A",
        "meta_epoch": "2025-12-23T00:12:27.113760",
        "meta_mean_motion": 14.82890729,
        "meta_eccentricity": 6.909e-05,
        "meta_inclination": 98.0205,
        "meta_ra_of_asc_node": 20.2126,
        "meta_arg_of_pericenter": 173.3687,
        "meta_mean_anomaly": 186.7536,
        "meta_ephemeris_type": 0,
        "meta_classification_type": "U",
        "meta_norad_cat_id": 41038,
        "meta_element_set_no": 999,
        "meta_rev_at_epoch": 54451,
        "meta_bstar": -7.730551e-06,
        "meta_mean_motion_dot": -1.17e-06,
        "meta_mean_motion_ddot": 0,
        "tle_line1": "1 41038U 15069A   25357.00864715 -.00000117  00000+0 -77306-5 0  9998",
        "tle_line2": "2 41038  98.0205  20.2126 0000690 173.3687 186.7536 14.82890729544510"
      },
      "geometry": {
        "type": "Point",
        "coordinates": [
          -171.80448928969085,
          -56.568498442940914
        ]
      }
    },
    {
      "type": "Feature",
      "properties": {
        "norad_id": 41167,
        "name": "KENT RIDGE 1",
        "group": "resource",
        "lat": -4.7708112973961,
        "lon": 114.42145528983515,
        "alt_km": 495.66406807084877,
        "timestamp": "2025-12-23T07:45:09.053901+00:00",
        "meta_object_name": "KENT RIDGE 1",
        "meta_object_id": "2015-077B",
        "meta_epoch": "2025-12-22T17:40:34.836384",
        "meta_mean_motion": 15.21707626,
        "meta_eccentricity": 0.00085399,
        "meta_inclination": 14.9787,
        "meta_ra_of_asc_node": 136.9576,
        "meta_arg_of_pericenter": 272.009,
        "meta_mean_anomaly": 87.9254,
        "meta_ephemeris_type": 0,
        "meta_classification_type": "U",
        "meta_norad_cat_id": 41167,
        "meta_element_set_no": 999,
        "meta_rev_at_epoch": 55416,
        "meta_bstar": 0.00015311914,
        "meta_mean_motion_dot": 4.327e-05,
        "meta_mean_motion_ddot": 0,
        "tle_line1": "1 41167U 15077B   25356.73651431  .00004327  00000+0  15312-3 0  9990",
        "tle_line2": "2 41167  14.9787 136.9576 0008539 272.0090  87.9254 15.21707626554162"
      },
      "geometry": {
        "type": "Point",
        "coordinates": [
          114.42145528983515,
          -4.7708112973961
        ]
      }
    },
    {
      "type": "Feature",
      "properties": {
        "norad_id": 41194,
        "name": "GAOFEN-4",
        "group": "resource",
        "lat": -0.17457002087407708,
        "lon": -45.86057772422123,
        "alt_km": 35795.54991021905,
        "timestamp": "2025-12-23T07:45:09.053912+00:00",
        "meta_object_name": "GAOFEN-4",
        "meta_object_id": "2015-083A",
        "meta_epoch": "2025-12-19T15:27:26.627616",
        "meta_mean_motion": 1.00273138,
        "meta_eccentricity": 0.0002945,
        "meta_inclination": 0.1878,
        "meta_ra_of_asc_node": 81.7841,
        "meta_arg_of_pericenter": 93.4275,
        "meta_mean_anomaly": 250.8523,
        "meta_ephemeris_type": 0,
        "meta_classification_type": "U",
        "meta_norad_cat_id": 41194,
        "meta_element_set_no": 999,
        "meta_rev_at_epoch": 3672,
        "meta_bstar": 0,
        "meta_mean_motion_dot": -3.11e-06,
        "meta_mean_motion_ddot": 0,
        "tle_line1": "1 41194U 15083A   25353.64405819 -.00000311  00000+0  00000+0 0  9995",
        "tle_line2": "2 41194   0.1878  81.7841 0002945  93.4275 250.8523  1.00273138 36722"
      },
      "geometry": {
        "type": "Point",
        "coordinates": [
          -45.86057772422123,
          -0.17457002087407708
        ]
      }
    },
    {
      "type": "Feature",
      "properties": {
        "norad_id": 41240,
        "name": "JASON-3",
        "group": "resource",
        "lat": 40.22070581749866,
        "lon": 157.66161661266221,
        "alt_km": 1310.716367987432,
        "timestamp": "2025-12-23T07:45:09.053924+00:00",
        "meta_object_name": "JASON-3",
        "meta_object_id": "2016-002A",
        "meta_epoch": "2025-12-22T20:20:06.974880",
        "meta_mean_motion": 12.8762695,
        "meta_eccentricity": 0.00072601,
        "meta_inclination": 66.0402,
        "meta_ra_of_asc_node": 136.574,
        "meta_arg_of_pericenter": 271.3992,
        "meta_mean_anomaly": 88.6195,
        "meta_ephemeris_type": 0,
        "meta_classification_type": "U",
        "meta_norad_cat_id": 41240,
        "meta_element_set_no": 999,
        "meta_rev_at_epoch": 46454,
        "meta_bstar": 5.7561824e-05,
        "meta_mean_motion_dot": -4.8e-07,
        "meta_mean_motion_ddot": 0,
        "tle_line1": "1 41240U 16002A   25356.84730295 -.00000048  00000+0  57562-4 0  9990",
        "tle_line2": "2 41240  66.0402 136.5740 0007260 271.3992  88.6195 12.87626950464541"
      },
      "geometry": {
        "type": "Point",
        "coordinates": [
          157.66161661266221,
          40.22070581749866
        ]
      }
    },
    {
      "type": "Feature",
      "properties": {
        "norad_id": 41335,
        "name": "SENTINEL-3A",
        "group": "resource",
        "lat": -39.02633931486179,
        "lon": 69.25859097384568,
        "alt_km": 809.5306780111287,
        "timestamp": "2025-12-23T07:45:09.053934+00:00",
        "meta_object_name": "SENTINEL-3A",
        "meta_object_id": "2016-011A",
        "meta_epoch": "2025-12-22T21:50:19.933152",
        "meta_mean_motion": 14.2673453,
        "meta_eccentricity": 8.908e-05,
        "meta_inclination": 98.63,
        "meta_ra_of_asc_node": 61.7805,
        "meta_arg_of_pericenter": 95.2233,
        "meta_mean_anomaly": 264.905,
        "meta_ephemeris_type": 0,
        "meta_classification_type": "U",
        "meta_norad_cat_id": 41335,
        "meta_element_set_no": 999,
        "meta_rev_at_epoch": 51292,
        "meta_bstar": 7.9537287e-05,
        "meta_mean_motion_dot": 1.49e-06,
        "meta_mean_motion_ddot": 0,
        "tle_line1": "1 41335U 16011A   25356.90995293  .00000149  00000+0  79537-4 0  9990",
        "tle_line2": "2 41335  98.6300  61.7805 0000890  95.2233 264.9050 14.26734530512922"
      },
      "geometry": {
        "type": "Point",
        "coordinates": [
          69.25859097384568,
          -39.02633931486179
        ]
      }
    },
    {
      "type": "Feature",
      "properties": {
        "norad_id": 41556,
        "name": "ZIYUAN 3-02 (ZY 3-02)",
        "group": "resource",
        "lat": 66.72785820729929,
        "lon": 53.71678016854744,
        "alt_km": 501.56192853499033,
        "timestamp": "2025-12-23T07:45:09.053944+00:00",
        "meta_object_name": "ZIYUAN 3-02 (ZY 3-02)",
        "meta_object_id": "2016-033A",
        "meta_epoch": "2025-12-22T23:33:39.585888",
        "meta_mean_motion": 15.2119262,
        "meta_eccentricity": 0.0011252,
        "meta_inclination": 97.403,
        "meta_ra_of_asc_node": 70.9777,
        "meta_arg_of_pericenter": 207.8039,
        "meta_mean_anomaly": 152.2597,
        "meta_ephemeris_type": 0,
        "meta_classification_type": "U",
        "meta_norad_cat_id": 41556,
        "meta_element_set_no": 999,
        "meta_rev_at_epoch": 53119,
        "meta_bstar": 0.00035462201,
        "meta_mean_motion_dot": 7.854e-05,
        "meta_mean_motion_ddot": 0,
        "tle_line1": "1 41556U 16033A   25356.98170817  .00007854  00000+0  35462-3 0  9992",
        "tle_line2": "2 41556  97.4030  70.9777 0011252 207.8039 152.2597 15.21192620531192"
      },
      "geometry": {
        "type": "Point",
        "coordinates": [
          53.71678016854744,
          66.72785820729929
        ]
      }
    }
  ]
}